{
  "type": "FeatureCollection",
  "features": [
    {
      "type": "Feature",
      "properties": {
        "norad_id": 29486,
        "name": "GPS BIIRM-2 (PRN 31)",
        "group": "gps-ops",
        "lat": -39.030832877125874,
        "lon": 14.234485490759429,
        "alt_km": 20472.928719843003,
        "timestamp": "2025-12-02T08:59:32.972904+00:00",
        "meta_object_name": "GPS BIIRM-2 (PRN 31)",
        "meta_object_id": "2006-042A",
        "meta_epoch": "2025-12-01T13:45:36.640800",
        "meta_mean_motion": 2.00554492,
        "meta_eccentricity": 0.01073693,
        "meta_inclination": 54.6925,
        "meta_ra_of_asc_node": 159.184,
        "meta_arg_of_pericenter": 51.6942,
        "meta_mean_anomaly": 320.2253,
        "meta_ephemeris_type": 0,
        "meta_classification_type": "U",
        "meta_norad_cat_id": 29486,
        "meta_element_set_no": 999,
        "meta_rev_at_epoch": 14043,
        "meta_bstar": 0,
        "meta_mean_motion_dot": 1.26e-06,
        "meta_mean_motion_ddot": 0,
        "tle_line1": "1 29486U 06042A   25335.57334075  .00000126  00000+0  00000+0 0  9990",
        "tle_line2": "2 29486  54.6925 159.1840 0107369  51.6942 320.2253  2.00554492140433"
      },
      "geometry": {
        "type": "Point",
        "coordinates": [
          14.234485490759429,
          -39.030832877125874
        ]
      }
    },
    {
      "type": "Feature",
      "properties": {
        "norad_id": 29601,
        "name": "GPS BIIRM-3 (PRN 12)",
        "group": "gps-ops",
        "lat": -51.53327852051142,
        "lon": 159.96349218022817,
        "alt_km": 20405.234374619933,
        "timestamp": "2025-12-02T08:59:32.972916+00:00",
        "meta_object_name": "GPS BIIRM-3 (PRN 12)",
        "meta_object_id": "2006-052A",
        "meta_epoch": "2025-11-30T23:32:34.416960",
        "meta_mean_motion": 2.00572625,
        "meta_eccentricity": 0.0087464,
        "meta_inclination": 54.9732,
        "meta_ra_of_asc_node": 221.865,
        "meta_arg_of_pericenter": 87.3176,
        "meta_mean_anomaly": 273.7605,
        "meta_ephemeris_type": 0,
        "meta_classification_type": "U",
        "meta_norad_cat_id": 29601,
        "meta_element_set_no": 999,
        "meta_rev_at_epoch": 13943,
        "meta_bstar": 0,
        "meta_mean_motion_dot": 4.7e-07,
        "meta_mean_motion_ddot": 0,
        "tle_line1": "1 29601U 06052A   25334.98095390  .00000047  00000+0  00000+0 0  9990",
        "tle_line2": "2 29601  54.9732 221.8650 0087464  87.3176 273.7605  2.00572625139434"
      },
      "geometry": {
        "type": "Point",
        "coordinates": [
          159.96349218022817,
          -51.53327852051142
        ]
      }
    },
    {
      "type": "Feature",
      "properties": {
        "norad_id": 32260,
        "name": "GPS BIIRM-4 (PRN 15)",
        "group": "gps-ops",
        "lat": 48.19613345249105,
        "lon": 142.6382581593386,
        "alt_km": 19760.87303328075,
        "timestamp": "2025-12-02T08:59:32.972928+00:00",
        "meta_object_name": "GPS BIIRM-4 (PRN 15)",
        "meta_object_id": "2007-047A",
        "meta_epoch": "2025-12-01T06:52:15.674592",
        "meta_mean_motion": 2.00564902,
        "meta_eccentricity": 0.0164402,
        "meta_inclination": 53.9473,
        "meta_ra_of_asc_node": 88.2317,
        "meta_arg_of_pericenter": 85.1099,
        "meta_mean_anomaly": 276.7472,
        "meta_ephemeris_type": 0,
        "meta_classification_type": "U",
        "meta_norad_cat_id": 32260,
        "meta_element_set_no": 999,
        "meta_rev_at_epoch": 13284,
        "meta_bstar": 0,
        "meta_mean_motion_dot": -3e-08,
        "meta_mean_motion_ddot": 0,
        "tle_line1": "1 32260U 07047A   25335.28629253 -.00000003  00000+0  00000+0 0  9998",
        "tle_line2": "2 32260  53.9473  88.2317 0164402  85.1099 276.7472  2.00564902132845"
      },
      "geometry": {
        "type": "Point",
        "coordinates": [
          142.6382581593386,
          48.19613345249105
        ]
      }
    },
    {
      "type": "Feature",
      "properties": {
        "norad_id": 32384,
        "name": "GPS BIIRM-5 (PRN 29)",
        "group": "gps-ops",
        "lat": -13.735949753114806,
        "lon": 111.82026285842372,
        "alt_km": 20111.945417450563,
        "timestamp": "2025-12-02T08:59:32.972939+00:00",
        "meta_object_name": "GPS BIIRM-5 (PRN 29)",
        "meta_object_id": "2007-062A",
        "meta_epoch": "2025-11-30T01:46:38.777952",
        "meta_mean_motion": 2.0057652,
        "meta_eccentricity": 0.00321996,
        "meta_inclination": 55.1935,
        "meta_ra_of_asc_node": 282.1541,
        "meta_arg_of_pericenter": 162.9568,
        "meta_mean_anomaly": 172.309,
        "meta_ephemeris_type": 0,
        "meta_classification_type": "U",
        "meta_norad_cat_id": 32384,
        "meta_element_set_no": 999,
        "meta_rev_at_epoch": 13151,
        "meta_bstar": 0,
        "meta_mean_motion_dot": -3.9e-07,
        "meta_mean_motion_ddot": 0,
        "tle_line1": "1 32384U 07062A   25334.07405993 -.00000039  00000+0  00000+0 0  9990",
        "tle_line2": "2 32384  55.1935 282.1541 0032199 162.9568 172.3090  2.00576520131514"
      },
      "geometry": {
        "type": "Point",
        "coordinates": [
          111.82026285842372,
          -13.735949753114806
        ]
      }
    },
    {
      "type": "Feature",
      "properties": {
        "norad_id": 32711,
        "name": "GPS BIIRM-6 (PRN 07)",
        "group": "gps-ops",
        "lat": 45.13726845057196,
        "lon": -68.12240496668714,
        "alt_km": 20481.13470018531,
        "timestamp": "2025-12-02T08:59:32.972951+00:00",
        "meta_object_name": "GPS BIIRM-6 (PRN 07)",
        "meta_object_id": "2008-012A",
        "meta_epoch": "2025-12-01T16:55:34.250592",
        "meta_mean_motion": 2.00564991,
        "meta_eccentricity": 0.0202013,
        "meta_inclination": 54.4753,
        "meta_ra_of_asc_node": 157.8135,
        "meta_arg_of_pericenter": 244.8275,
        "meta_mean_anomaly": 113.1101,
        "meta_ephemeris_type": 0,
        "meta_classification_type": "U",
        "meta_norad_cat_id": 32711,
        "meta_element_set_no": 999,
        "meta_rev_at_epoch": 12979,
        "meta_bstar": 0,
        "meta_mean_motion_dot": 1.24e-06,
        "meta_mean_motion_ddot": 0,
        "tle_line1": "1 32711U 08012A   25335.70525753  .00000124  00000+0  00000+0 0  9992",
        "tle_line2": "2 32711  54.4753 157.8135 0202013 244.8275 113.1101  2.00564991129796"
      },
      "geometry": {
        "type": "Point",
        "coordinates": [
          -68.12240496668714,
          45.13726845057196
        ]
      }
    },
    {
      "type": "Feature",
      "properties": {
        "norad_id": 35752,
        "name": "GPS BIIRM-8 (PRN 05)",
        "group": "gps-ops",
        "lat": 30.832866132825384,
        "lon": -168.44378127772364,
        "alt_km": 20108.15377671584,
        "timestamp": "2025-12-02T08:59:32.972962+00:00",
        "meta_object_name": "GPS BIIRM-8 (PRN 05)",
        "meta_object_id": "2009-043A",
        "meta_epoch": "2025-12-01T04:42:32.815296",
        "meta_mean_motion": 2.00566259,
        "meta_eccentricity": 0.00521242,
        "meta_inclination": 56.0822,
        "meta_ra_of_asc_node": 35.2386,
        "meta_arg_of_pericenter": 82.0997,
        "meta_mean_anomaly": 288.3285,
        "meta_ephemeris_type": 0,
        "meta_classification_type": "U",
        "meta_norad_cat_id": 35752,
        "meta_element_set_no": 999,
        "meta_rev_at_epoch": 11939,
        "meta_bstar": 0,
        "meta_mean_motion_dot": -6.6e-07,
        "meta_mean_motion_ddot": 0,
        "tle_line1": "1 35752U 09043A   25335.19621314 -.00000066  00000+0  00000+0 0  9994",
        "tle_line2": "2 35752  56.0822  35.2386 0052124  82.0997 288.3285  2.00566259119397"
      },
      "geometry": {
        "type": "Point",
        "coordinates": [
          -168.44378127772364,
          30.832866132825384
        ]
      }
    },
    {
      "type": "Feature",
      "properties": {
        "norad_id": 36585,
        "name": "GPS BIIF-1  (PRN 25)",
        "group": "gps-ops",
        "lat": -53.05102994077261,
        "lon": 109.2176473446406,
        "alt_km": 20511.346801066244,
        "timestamp": "2025-12-02T08:59:32.972973+00:00",
        "meta_object_name": "GPS BIIF-1  (PRN 25)",
        "meta_object_id": "2010-022A",
        "meta_epoch": "2025-12-01T06:27:39.458016",
        "meta_mean_motion": 2.00552516,
        "meta_eccentricity": 0.0125618,
        "meta_inclination": 54.3025,
        "meta_ra_of_asc_node": 216.5366,
        "meta_arg_of_pericenter": 64.9463,
        "meta_mean_anomaly": 117.0243,
        "meta_ephemeris_type": 0,
        "meta_classification_type": "U",
        "meta_norad_cat_id": 36585,
        "meta_element_set_no": 999,
        "meta_rev_at_epoch": 11362,
        "meta_bstar": 0,
        "meta_mean_motion_dot": 6e-07,
        "meta_mean_motion_ddot": 0,
        "tle_line1": "1 36585U 10022A   25335.26920669  .00000060  00000+0  00000+0 0  9994",
        "tle_line2": "2 36585  54.3025 216.5366 0125618  64.9463 117.0243  2.00552516113629"
      },
      "geometry": {
        "type": "Point",
        "coordinates": [
          109.2176473446406,
          -53.05102994077261
        ]
      }
    }
  ]
}